IRIDIUM 126             
1 42809U 17039G   25294.88915412  .00000081  00000+0  21776-4 0  9998
2 42809  86.3921  93.2674 0002316  89.2077 270.9384 14.34219455435799
IRIDIUM 124             
1 42810U 17039H   25294.76230087  .00000802  00000+0  23243-3 0  9996
2 42810  86.4532  30.0251 0002067  89.7515 270.3923 14.43284171440724
IRIDIUM 128             
1 42811U 17039J   25294.94967724  .00000168  00000+0  53024-4 0  9998
2 42811  86.3938 124.7745 0001737  79.8022 280.3370 14.34216552435830
IRIDIUM 121             
1 42812U 17039K   25294.90818088  .00000021  00000+0  29134-6 0  9998
2 42812  86.3921  93.2855 0001909  91.3998 268.7417 14.34217830435671
IRIDIUM 133             
1 42955U 17061A   25294.91160456 -.00000098  00000+0 -41984-4 0  9992
2 42955  86.3945 124.9023 0001924  86.0868 274.0548 14.34217485420628
IRIDIUM 100             
1 42956U 17061B   25294.90526093  .00000090  00000+0  25044-4 0  9994
2 42956  86.3937 124.8290 0002130  84.4496 275.6942 14.34217204420628
IRIDIUM 122             
1 42957U 17061C   25294.94331719 -.00000179  00000+0 -70957-4 0  9991
2 42957  86.3942 124.8127 0002016  83.9140 276.2285 14.34217458420636
IRIDIUM 129             
1 42958U 17061D   25294.89891830  .00000144  00000+0  44457-4 0  9997
2 42958  86.3939 124.8957 0002375  95.6234 264.5233 14.34217251420641
